[{"OBJECT_NAME":"GOES 1 (SMS-C)","OBJECT_ID":"1975-100A","EPOCH":"2026-03-03T03:49:38.807616","MEAN_MOTION":1.00237171,"ECCENTRICITY":0.0005429,"INCLINATION":4.8778,"RA_OF_ASC_NODE":278.7648,"ARG_OF_PERICENTER":359.694,"MEAN_ANOMALY":179.3831,"EPHEMERIS_TYPE":0,"CLASSIFICATION_TYPE":"U","NORAD_CAT_ID":8366,"ELEMENT_SET_NO":999,"REV_AT_EPOCH":18400,"BSTAR":0,"MEAN_MOTION_DOT":-6.0e-8,"MEAN_MOTION_DDOT":0},{"OBJECT_NAME":"GOES 2","OBJECT_ID":"1977-048A","EPOCH":"2026-03-02T22:58:12.322848","MEAN_MOTION":0.99398073,"ECCENTRICITY":0.0013885,"INCLINATION":6.6726,"RA_OF_ASC_NODE":294.2305,"ARG_OF_PERICENTER":47.5368,"MEAN_ANOMALY":283.6982,"EPHEMERIS_TYPE":0,"CLASSIFICATION_TYPE":"U","NORAD_CAT_ID":10061,"ELEMENT_SET_NO":999,"REV_AT_EPOCH":4521,"BSTAR":0,"MEAN_MOTION_DOT":-2.94e-6,"MEAN_MOTION_DDOT":0},{"OBJECT_NAME":"GOES 3","OBJECT_ID":"1978-062A","EPOCH":"2026-03-02T15:39:32.539680","MEAN_MOTION":0.99365793,"ECCENTRICITY":0.0002864,"INCLINATION":7.1427,"RA_OF_ASC_NODE":300.0597,"ARG_OF_PERICENTER":354.3803,"MEAN_ANOMALY":265.0381,"EPHEMERIS_TYPE":0,"CLASSIFICATION_TYPE":"U","NORAD_CAT_ID":10953,"ELEMENT_SET_NO":999,"REV_AT_EPOCH":12747,"BSTAR":0,"MEAN_MOTION_DOT":-2.52e-6,"MEAN_MOTION_DDOT":0},{"OBJECT_NAME":"GOES 4","OBJECT_ID":"1980-074A","EPOCH":"2026-03-03T01:51:52.690752","MEAN_MOTION":0.99231573,"ECCENTRICITY":0.0032082,"INCLINATION":8.2151,"RA_OF_ASC_NODE":303.7405,"ARG_OF_PERICENTER":103.0066,"MEAN_ANOMALY":94.655,"EPHEMERIS_TYPE":0,"CLASSIFICATION_TYPE":"U","NORAD_CAT_ID":11964,"ELEMENT_SET_NO":999,"REV_AT_EPOCH":12638,"BSTAR":0,"MEAN_MOTION_DOT":-2.57e-6,"MEAN_MOTION_DDOT":0},{"OBJECT_NAME":"GOES 5","OBJECT_ID":"1981-049A","EPOCH":"2026-03-03T01:26:33.785664","MEAN_MOTION":1.0021176,"ECCENTRICITY":0.0004672,"INCLINATION":9.5483,"RA_OF_ASC_NODE":316.3507,"ARG_OF_PERICENTER":336.741,"MEAN_ANOMALY":161.0314,"EPHEMERIS_TYPE":0,"CLASSIFICATION_TYPE":"U","NORAD_CAT_ID":12472,"ELEMENT_SET_NO":999,"REV_AT_EPOCH":12178,"BSTAR":0,"MEAN_MOTION_DOT":-2.07e-6,"MEAN_MOTION_DDOT":0},{"OBJECT_NAME":"GOES 6","OBJECT_ID":"1983-041A","EPOCH":"2026-03-03T01:47:38.787936","MEAN_MOTION":1.00217649,"ECCENTRICITY":0.0002362,"INCLINATION":10.3595,"RA_OF_ASC_NODE":321.9086,"ARG_OF_PERICENTER":306.4337,"MEAN_ANOMALY":170.1894,"EPHEMERIS_TYPE":0,"CLASSIFICATION_TYPE":"U","NORAD_CAT_ID":14050,"ELEMENT_SET_NO":999,"REV_AT_EPOCH":21495,"BSTAR":0,"MEAN_MOTION_DOT":-8.2e-7,"MEAN_MOTION_DDOT":0},{"OBJECT_NAME":"GOES 7","OBJECT_ID":"1987-022A","EPOCH":"2026-03-02T08:21:38.244384","MEAN_MOTION":0.99894055,"ECCENTRICITY":0.00039365,"INCLINATION":13.0226,"RA_OF_ASC_NODE":338.3886,"ARG_OF_PERICENTER":14.4711,"MEAN_ANOMALY":162.2775,"EPHEMERIS_TYPE":0,"CLASSIFICATION_TYPE":"U","NORAD_CAT_ID":17561,"ELEMENT_SET_NO":999,"REV_AT_EPOCH":12589,"BSTAR":0,"MEAN_MOTION_DOT":6.2e-7,"MEAN_MOTION_DDOT":0},{"OBJECT_NAME":"GOES 8","OBJECT_ID":"1994-022A","EPOCH":"2026-03-03T02:55:24.103200","MEAN_MOTION":0.98908038,"ECCENTRICITY":0.0004973,"INCLINATION":14.3393,"RA_OF_ASC_NODE":14.4798,"ARG_OF_PERICENTER":14.0409,"MEAN_ANOMALY":350.51,"EPHEMERIS_TYPE":0,"CLASSIFICATION_TYPE":"U","NORAD_CAT_ID":23051,"ELEMENT_SET_NO":999,"REV_AT_EPOCH":12308,"BSTAR":0,"MEAN_MOTION_DOT":-2.27e-6,"MEAN_MOTION_DDOT":0},{"OBJECT_NAME":"GOES 9","OBJECT_ID":"1995-025A","EPOCH":"2026-03-01T07:00:14.876640","MEAN_MOTION":0.98799667,"ECCENTRICITY":0.0003713,"INCLINATION":13.8669,"RA_OF_ASC_NODE":15.3357,"ARG_OF_PERICENTER":211.3457,"MEAN_ANOMALY":333.8383,"EPHEMERIS_TYPE":0,"CLASSIFICATION_TYPE":"U","NORAD_CAT_ID":23581,"ELEMENT_SET_NO":999,"REV_AT_EPOCH":11169,"BSTAR":0,"MEAN_MOTION_DOT":-1.59e-6,"MEAN_MOTION_DDOT":0},{"OBJECT_NAME":"GOES 10","OBJECT_ID":"1997-019A","EPOCH":"2026-03-02T20:07:38.616096","MEAN_MOTION":0.99122632,"ECCENTRICITY":0.003129,"INCLINATION":13.0022,"RA_OF_ASC_NODE":21.8585,"ARG_OF_PERICENTER":239.148,"MEAN_ANOMALY":304.0616,"EPHEMERIS_TYPE":0,"CLASSIFICATION_TYPE":"U","NORAD_CAT_ID":24786,"ELEMENT_SET_NO":999,"REV_AT_EPOCH":10501,"BSTAR":0,"MEAN_MOTION_DOT":-1.36e-6,"MEAN_MOTION_DDOT":0},{"OBJECT_NAME":"GOES 11","OBJECT_ID":"2000-022A","EPOCH":"2026-03-02T20:37:44.981760","MEAN_MOTION":0.99041398,"ECCENTRICITY":0.0005954,"INCLINATION":11.5769,"RA_OF_ASC_NODE":47.4587,"ARG_OF_PERICENTER":254.3169,"MEAN_ANOMALY":99.1899,"EPHEMERIS_TYPE":0,"CLASSIFICATION_TYPE":"U","NORAD_CAT_ID":26352,"ELEMENT_SET_NO":999,"REV_AT_EPOCH":5141,"BSTAR":0,"MEAN_MOTION_DOT":-1.49e-6,"MEAN_MOTION_DDOT":0},{"OBJECT_NAME":"GOES 12","OBJECT_ID":"2001-031A","EPOCH":"2026-03-01T19:03:20.998656","MEAN_MOTION":0.99138222,"ECCENTRICITY":0.00087659,"INCLINATION":11.9899,"RA_OF_ASC_NODE":38.165,"ARG_OF_PERICENTER":295.5256,"MEAN_ANOMALY":62.6562,"EPHEMERIS_TYPE":0,"CLASSIFICATION_TYPE":"U","NORAD_CAT_ID":26871,"ELEMENT_SET_NO":999,"REV_AT_EPOCH":8969,"BSTAR":0,"MEAN_MOTION_DOT":-2.44e-6,"MEAN_MOTION_DDOT":0},{"OBJECT_NAME":"EWS-G1 (GOES 13)","OBJECT_ID":"2006-018A","EPOCH":"2026-03-03T03:18:44.367264","MEAN_MOTION":0.98784711,"ECCENTRICITY":0.0061993,"INCLINATION":4.2577,"RA_OF_ASC_NODE":77.718,"ARG_OF_PERICENTER":272.9219,"MEAN_ANOMALY":115.5818,"EPHEMERIS_TYPE":0,"CLASSIFICATION_TYPE":"U","NORAD_CAT_ID":29155,"ELEMENT_SET_NO":999,"REV_AT_EPOCH":4220,"BSTAR":0,"MEAN_MOTION_DOT":1.9e-7,"MEAN_MOTION_DDOT":0},{"OBJECT_NAME":"GOES 14","OBJECT_ID":"2009-033A","EPOCH":"2026-03-03T03:03:30.826368","MEAN_MOTION":1.00123619,"ECCENTRICITY":0.000219,"INCLINATION":1.4156,"RA_OF_ASC_NODE":84.4389,"ARG_OF_PERICENTER":295.8945,"MEAN_ANOMALY":28.9504,"EPHEMERIS_TYPE":0,"CLASSIFICATION_TYPE":"U","NORAD_CAT_ID":35491,"ELEMENT_SET_NO":999,"REV_AT_EPOCH":552,"BSTAR":0,"MEAN_MOTION_DOT":1.14e-6,"MEAN_MOTION_DDOT":0},{"OBJECT_NAME":"EWS-G2 (GOES 15)","OBJECT_ID":"2010-008A","EPOCH":"2026-03-03T02:23:49.630272","MEAN_MOTION":1.00269225,"ECCENTRICITY":0.0001668,"INCLINATION":1.0058,"RA_OF_ASC_NODE":85.1718,"ARG_OF_PERICENTER":23.7748,"MEAN_ANOMALY":151.3712,"EPHEMERIS_TYPE":0,"CLASSIFICATION_TYPE":"U","NORAD_CAT_ID":36411,"ELEMENT_SET_NO":999,"REV_AT_EPOCH":5857,"BSTAR":0,"MEAN_MOTION_DOT":6.0e-8,"MEAN_MOTION_DDOT":0},{"OBJECT_NAME":"GOES 16","OBJECT_ID":"2016-071A","EPOCH":"2026-03-03T03:41:38.902272","MEAN_MOTION":1.00271628,"ECCENTRICITY":0.0002599,"INCLINATION":0.1441,"RA_OF_ASC_NODE":90.2185,"ARG_OF_PERICENTER":216.3842,"MEAN_ANOMALY":165.0243,"EPHEMERIS_TYPE":0,"CLASSIFICATION_TYPE":"U","NORAD_CAT_ID":41866,"ELEMENT_SET_NO":999,"REV_AT_EPOCH":3404,"BSTAR":0,"MEAN_MOTION_DOT":-1.06e-6,"MEAN_MOTION_DDOT":0},{"OBJECT_NAME":"GOES 17","OBJECT_ID":"2018-022A","EPOCH":"2026-03-03T03:33:38.719584","MEAN_MOTION":1.00270443,"ECCENTRICITY":0.0002322,"INCLINATION":0.6649,"RA_OF_ASC_NODE":87.5818,"ARG_OF_PERICENTER":219.7732,"MEAN_ANOMALY":177.466,"EPHEMERIS_TYPE":0,"CLASSIFICATION_TYPE":"U","NORAD_CAT_ID":43226,"ELEMENT_SET_NO":999,"REV_AT_EPOCH":2936,"BSTAR":0,"MEAN_MOTION_DOT":-1.98e-6,"MEAN_MOTION_DDOT":0}]
